NORAD_CAT_ID,OBJECT_NAME,OBJECT_TYPE,EPOCH,MEAN_MOTION,ECCENTRICITY,INCLINATION,RA_OF_ASC_NODE,ARG_OF_PERICENTER,MEAN_ANOMALY,BSTAR,MEAN_MOTION_DOT,MEAN_MOTION_DDOT,TLE_LINE0,TLE_LINE1,TLE_LINE2,SEMIMAJOR_AXIS,PERIOD,APOGEE,PERIGEE,DECAYED
52992.0,STARLINK-4269,PAYLOAD,2024-03-26 04:46:52,15.08825167,0.0001358,53.215,67.1104,80.9812,279.1334,-0.00011296,-2.084e-05,0.0,0 STARLINK-4269,1 52992U 22076G   24086.19922093 -.00002084  00000-0 -11296-3 0  9997,2 52992  53.2150  67.1104 0001358  80.9812 279.1334 15.08825167 95465,6917.926,95.438,540.73,538.851,0.0
52992.0,STARLINK-4269,PAYLOAD,2024-03-26 07:57:38,15.08830891,0.0001597,53.2169,66.5135,78.348,281.7691,-7.776e-06,-4.12e-06,0.0,0 STARLINK-4269,1 52992U 22076G   24086.33169984 -.00000412  00000-0 -77760-5 0  9998,2 52992  53.2169  66.5135 0001597  78.3480 281.7691 15.08830891 95015,6917.908,95.438,540.878,538.668,0.0
52992.0,STARLINK-4269,PAYLOAD,2024-03-26 15:54:34,15.08837101,0.0001481,53.2164,65.03,80.6861,279.4298,0.00020402,2.96e-05,0.0,0 STARLINK-4269,1 52992U 22076G   24086.66290136  .00002960  00000-0  20402-3 0  9995,2 52992  53.2164  65.0300 0001481  80.6861 279.4298 15.08837101 95534,6917.889,95.438,540.779,538.73,0.0
52992.0,STARLINK-4269,PAYLOAD,2024-03-27 04:37:39,15.08855127,0.0001388,53.2166,62.6466,93.6642,266.4509,0.00062348,9.653e-05,0.0,0 STARLINK-4269,1 52992U 22076G   24087.19281577  .00009653  00000-0  62348-3 0  9994,2 52992  53.2166  62.6466 0001388  93.6642 266.4509 15.08855127 95617,6917.834,95.437,540.659,538.739,0.0
52992.0,STARLINK-4269,PAYLOAD,2024-03-27 15:45:22,15.08830244,0.000167,53.2176,60.5646,92.4271,267.6912,5.4432e-05,5.78e-06,0.0,0 STARLINK-4269,1 52992U 22076G   24087.65650586  .00000578  00000-0  54432-4 0  9998,2 52992  53.2176  60.5646 0001670  92.4271 267.6912 15.08830244 95685,6917.91,95.438,540.931,538.62,0.0
52992.0,STARLINK-4269,PAYLOAD,2024-03-28 07:39:14,15.08840269,0.0001178,53.217,57.5923,90.848,269.2647,0.00062898,9.737e-05,0.0,0 STARLINK-4269,1 52992U 22076G   24088.31891336  .00009737  00000-0  62898-3 0  9992,2 52992  53.2170  57.5923 0001178  90.8480 269.2647 15.08840269 95311,6917.88,95.438,540.559,538.93,0.0
52992.0,STARLINK-4269,PAYLOAD,2024-03-29 04:19:14,15.08871328,0.0001156,53.2183,53.7259,96.8197,263.2927,0.0010004,0.00015683,0.0,0 STARLINK-4269,1 52992U 22076G   24089.18002679  .00015683  00000-0  10004-2 0  9990,2 52992  53.2183  53.7259 0001156  96.8197 263.2927 15.08871328 95913,6917.785,95.436,540.449,538.85,0.0
52992.0,STARLINK-4269,PAYLOAD,2024-03-29 07:30:00,15.08876996,0.0001192,53.2184,53.1312,96.3607,263.7521,0.00098812,0.00015489,0.0,0 STARLINK-4269,1 52992U 22076G   24089.31250332  .00015489  00000-0  98812-3 0  9994,2 52992  53.2184  53.1312 0001192  96.3607 263.7521 15.08876996 95460,6917.767,95.435,540.457,538.808,0.0
52992.0,STARLINK-4269,PAYLOAD,2024-03-29 21:48:28,15.08864799,0.0001436,53.219,50.4544,122.2125,237.9007,0.00038839,5.903e-05,0.0,0 STARLINK-4269,1 52992U 22076G   24089.90865911  .00005903  00000-0  38839-3 0  9997,2 52992  53.2190  50.4544 0001436 122.2125 237.9007 15.08864799 95559,6917.805,95.436,540.663,538.676,0.0
52992.0,STARLINK-4269,PAYLOAD,2024-03-30 04:10:00,15.08858101,9.61e-05,53.2183,49.2676,107.4366,252.6732,0.00013653,1.887e-05,0.0,0 STARLINK-4269,1 52992U 22076G   24090.17361804  .00001887  00000-0  13653-3 0  9994,2 52992  53.2183  49.2676 0000961 107.4366 252.6732 15.08858101 96063,6917.825,95.436,540.355,539.025,0.0
52992.0,STARLINK-4269,PAYLOAD,2024-03-30 13:42:19,15.08852851,7.9e-05,53.2178,47.4815,99.8926,260.2155,0.00031982,4.808e-05,0.0,0 STARLINK-4269,1 52992U 22076G   24090.57105626  .00004808  00000-0  31982-3 0  9997,2 52992  53.2178  47.4815 0000790  99.8926 260.2155 15.08852851 95652,6917.841,95.437,540.253,539.16,0.0
52992.0,STARLINK-4269,PAYLOAD,2024-03-30 21:39:15,15.08845345,0.0001803,53.219,45.998,108.0792,252.0397,0.00017828,2.551e-05,0.0,0 STARLINK-4269,1 52992U 22076G   24090.90225990  .00002551  00000-0  17828-3 0  9997,2 52992  53.2190  45.9980 0001803 108.0792 252.0397 15.08845345 96177,6917.864,95.437,540.976,538.482,0.0
52992.0,STARLINK-4269,PAYLOAD,2024-03-31 13:33:06,15.08843159,0.000144,53.2196,43.0275,108.0085,252.1064,0.00048763,7.482e-05,0.0,0 STARLINK-4269,1 52992U 22076G   24091.56466297  .00007482  00000-0  48763-3 0  9997,2 52992  53.2196  43.0275 0001440 108.0085 252.1064 15.08843159 95803,6917.871,95.437,540.732,538.74,0.0
52992.0,STARLINK-4269,PAYLOAD,2024-04-01 05:26:57,15.08855778,0.0001353,53.219,40.0531,106.446,253.6681,0.00060801,9.406e-05,0.0,0 STARLINK-4269,1 52992U 22076G   24092.22705841  .00009406  00000-0  60801-3 0  9997,2 52992  53.2190  40.0531 0001353 106.4460 253.6681 15.08855778 95903,6917.832,95.437,540.633,538.761,0.0
52992.0,STARLINK-4269,PAYLOAD,2024-04-02 03:42:21,15.08841895,0.0001167,53.2176,35.8901,98.4179,261.6945,3.7516e-05,3.09e-06,0.0,0 STARLINK-4269,1 52992U 22076G   24093.15441956  .00000309  00000-0  37516-4 0  9995,2 52992  53.2176  35.8901 0001167  98.4179 261.6945 15.08841895 96515,6917.875,95.437,540.547,538.932,0.0
52992.0,STARLINK-4269,PAYLOAD,2024-04-02 13:14:40,15.08841584,0.0001149,53.2177,34.1031,88.5056,271.6067,5.9482e-05,6.59e-06,0.0,0 STARLINK-4269,1 52992U 22076G   24093.55186058  .00000659  00000-0  59482-4 0  9992,2 52992  53.2177  34.1031 0001149  88.5056 271.6067 15.08841584 96102,6917.876,95.437,540.535,538.946,0.0
52992.0,STARLINK-4269,PAYLOAD,2024-04-03 13:05:27,15.08845527,0.0001263,53.2182,29.6447,89.6703,270.4434,8.5952e-05,1.081e-05,0.0,0 STARLINK-4269,1 52992U 22076G   24094.54545892  .00001081  00000-0  85952-4 0  9998,2 52992  53.2182  29.6447 0001263  89.6703 270.4434 15.08845527 96258,6917.863,95.437,540.602,538.855,0.0
52992.0,STARLINK-4269,PAYLOAD,2024-04-03 19:27:00,15.08840393,0.0001334,53.2181,28.4568,94.8085,265.3059,9.0551e-05,1.154e-05,0.0,0 STARLINK-4269,1 52992U 22076G   24094.81042344  .00001154  00000-0  90551-4 0  9994,2 52992  53.2181  28.4568 0001334  94.8085 265.3059 15.08840393 96766,6917.879,95.438,540.667,538.821,0.0
52992.0,STARLINK-4269,PAYLOAD,2024-04-04 12:56:15,15.08837242,0.0001286,53.2178,25.1831,94.7292,265.3847,1.7649e-05,-7e-08,0.0,0 STARLINK-4269,1 52992U 22076G   24095.53906585 -.00000007  00000-0  17649-4 0  9994,2 52992  53.2178  25.1831 0001286  94.7292 265.3847 15.08837242 96409,6917.889,95.438,540.643,538.864,0.0
52992.0,STARLINK-4269,PAYLOAD,2024-04-04 22:28:34,15.08837117,0.0001319,53.219,23.3991,92.3108,267.8035,5.9221e-05,6.55e-06,0.0,0 STARLINK-4269,1 52992U 22076G   24095.93650731  .00000655  00000-0  59221-4 0  9997,2 52992  53.2190  23.3991 0001319  92.3108 267.8035 15.08837117 96460,6917.889,95.438,540.667,538.842,0.0
52992.0,STARLINK-4269,PAYLOAD,2024-04-05 04:50:06,15.08846016,0.0001364,53.2197,22.209,94.4318,265.683,4.881e-05,4.89e-06,0.0,0 STARLINK-4269,1 52992U 22076G   24096.20146279  .00000489  00000-0  48810-4 0  9992,2 52992  53.2197  22.2090 0001364  94.4318 265.6830 15.08846016 96974,6917.862,95.437,540.671,538.783,0.0
52992.0,STARLINK-4269,PAYLOAD,2024-04-06 01:30:07,15.08844654,0.0001301,53.219,18.3453,91.561,268.5532,0.00015663,2.206e-05,0.0,0 STARLINK-4269,1 52992U 22076G   24097.06258134  .00002206  00000-0  15663-3 0  9999,2 52992  53.2190  18.3453 0001301  91.5610 268.5532 15.08844654 96630,6917.866,95.437,540.631,538.831,0.0
52992.0,STARLINK-4269,PAYLOAD,2024-04-06 18:59:22,15.08837556,0.0001374,53.2185,15.0732,88.4642,271.6507,3.9438e-05,3.4e-06,0.0,0 STARLINK-4269,1 52992U 22076G   24097.79122760  .00000340  00000-0  39438-4 0  9998,2 52992  53.2185  15.0732 0001374  88.4642 271.6507 15.08837556 97213,6917.888,95.438,540.703,538.802,0.0
52992.0,STARLINK-4269,PAYLOAD,2024-04-06 22:10:08,15.08835451,0.0001264,53.2193,14.48,85.3328,274.7808,9.1072e-05,1.162e-05,0.0,0 STARLINK-4269,1 52992U 22076G   24097.92370882  .00001162  00000-0  91072-4 0  9998,2 52992  53.2193  14.4800 0001264  85.3328 274.7808 15.08835451 96765,6917.894,95.438,540.634,538.885,0.0
52992.0,STARLINK-4269,PAYLOAD,2024-04-07 10:53:13,15.08841603,0.0001287,53.2189,12.0989,87.1238,272.9901,5.2224e-05,5.43e-06,0.0,0 STARLINK-4269,1 52992U 22076G   24098.45362543  .00000543  00000-0  52224-4 0  9990,2 52992  53.2189  12.0989 0001287  87.1238 272.9901 15.08841603 96846,6917.875,95.437,540.631,538.85,0.0
52992.0,STARLINK-4269,PAYLOAD,2024-04-07 22:00:55,15.08838623,0.0001445,53.2207,10.0227,102.8184,257.2969,-5.1436e-05,-1.106e-05,0.0,0 STARLINK-4269,1 52992U 22076G   24098.91731181 -.00001106  00000-0 -51436-4 0  9991,2 52992  53.2207  10.0227 0001445 102.8184 257.2969 15.08838623 96917,6917.885,95.438,540.749,538.75,0.0
52992.0,STARLINK-4269,PAYLOAD,2024-04-08 02:47:05,15.08838774,0.000142,53.2204,9.1296,99.7344,260.3809,-3.9669e-05,-9.19e-06,0.0,0 STARLINK-4269,1 52992U 22076G   24099.11603142 -.00000919  00000-0 -39669-4 0  9994,2 52992  53.2204   9.1296 0001420  99.7344 260.3809 15.08838774 97415,6917.884,95.438,540.731,538.767,0.0
52992.0,STARLINK-4269,PAYLOAD,2024-04-08 10:44:00,15.08838862,0.0001429,53.2205,7.6428,99.2774,260.838,-4.2277e-05,-9.61e-06,0.0,0 STARLINK-4269,1 52992U 22076G   24099.44723205 -.00000961  00000-0 -42277-4 0  9999,2 52992  53.2205   7.6428 0001429  99.2774 260.8380 15.08838862 96996,6917.884,95.438,540.737,538.76,0.0
52992.0,STARLINK-4269,PAYLOAD,2024-04-08 23:27:04,15.08852768,0.0001108,53.2169,5.2586,83.7154,276.3965,0.00015171,2.128e-05,0.0,0 STARLINK-4269,1 52992U 22076G   24099.97713695  .00002128  00000-0  15171-3 0  9996,2 52992  53.2169   5.2586 0001108  83.7154 276.3965 15.08852768 97070,6917.841,95.437,540.473,538.94,0.0
52992.0,STARLINK-4269,PAYLOAD,2024-04-09 01:02:27,15.08858229,0.0001289,53.2192,4.9647,96.3112,263.8027,0.00019599,2.834e-05,0.0,0 STARLINK-4269,1 52992U 22076G   24100.04337274  .00002834  00000-0  19599-3 0  9994,2 52992  53.2192   4.9647 0001289  96.3112 263.8027 15.08858229 97555,6917.825,95.436,540.581,538.798,0.0
